SL-3 R/B                
1 13403U 82079B   26039.91963107  .00006310  00000+0  25454-3 0  9995
2 13403  81.1445 227.0388 0024142 263.6790  96.1693 15.24375706373313
SL-14 R/B               
1 13553U 82092B   26039.84621909  .00000692  00000+0  74909-4 0  9996
2 13553  82.5704 168.3691 0021307  40.3601  74.7907 14.86634128324642
SL-3 R/B                
1 13819U 83010B   26039.95533940  .00014508  00000+0  30168-3 0  9990
2 13819  81.1025  37.4489 0017965 142.2573 217.9936 15.45331102353506
SL-3 R/B                
1 14208U 83075B   26039.93054098  .00012162  00000+0  32861-3 0  9990
2 14208  97.6136  43.4404 0021043 338.0233  22.0107 15.37673498325735
COSMOS 1536             
1 14699U 84013A   26039.75720104  .00006247  00000+0  26021-3 0  9993
2 14699  82.5467 136.5955 0014912  29.7834 330.4248 15.23437677268215
SL-14 R/B               
1 14820U 84027B   26039.73776966  .00000484  00000+0  52476-4 0  9990
2 14820  82.5398 272.1722 0019453  70.9091 289.4229 14.85947871243338
SL-8 R/B                
1 15483U 85006B   26039.92377433  .00000256  00000+0  93508-4 0  9999
2 15483  74.0471 314.0799 0019507 237.4747 195.6726 14.37768811149898
SL-12 R/B(2)            
1 15772U 85042D   26039.72054704  .00000186  00000+0  10509-3 0  9992
2 15772  71.1087 148.9314 0034922 174.5516 292.1157 14.21974094110276
SL-14 R/B               
1 15945U 85069B   26039.93326630  .00000565  00000+0  61168-4 0  9995
2 15945  82.5241  51.9792 0017269 289.4665  70.4685 14.86398786168562
SL-16 R/B               
1 16182U 85097B   26039.90448188 -.00000101  00000+0 -26825-4 0  9999
2 16182  71.0017 201.1505 0009624 293.2709 180.6340 14.16596310 83158
SL-14 R/B               
1 16496U 86006B   26039.71598276  .00000823  00000+0  84730-4 0  9999
2 16496  82.5267 287.0086 0076921   9.9250 350.3463 14.86775412144906
COSMOS 1743             
1 16719U 86034A   26039.66541185  .00030015  00000+0  42305-3 0  9996
2 16719  82.5329 104.2405 0005052  52.0330 308.1381 15.56446054175733
