CCSDS_OMM_VERS = 2.0
CREATION_DATE  = 
ORIGINATOR     = 

OBJECT_NAME    = SL-3 R/B
OBJECT_ID      = 1982-079B
CENTER_NAME    = EARTH
REF_FRAME      = TEME
TIME_SYSTEM    = UTC
MEAN_ELEMENT_THEORY = SGP/SGP4

EPOCH          = 2026-02-08T22:04:16.124448
MEAN_MOTION    = 15.24375706
ECCENTRICITY   = .00241422
INCLINATION    = 81.1445
RA_OF_ASC_NODE = 227.0388
ARG_OF_PERICENTER = 263.6790
MEAN_ANOMALY   = 96.1693

EPHEMERIS_TYPE = 0
CLASSIFICATION_TYPE = U
NORAD_CAT_ID   = 13403
ELEMENT_SET_NO = 999
REV_AT_EPOCH   = 37331
BSTAR          = .2545425E-3
MEAN_MOTION_DOT = .631E-4
MEAN_MOTION_DDOT = 0

CCSDS_OMM_VERS = 2.0
CREATION_DATE  = 
ORIGINATOR     = 

OBJECT_NAME    = SL-14 R/B
OBJECT_ID      = 1982-092B
CENTER_NAME    = EARTH
REF_FRAME      = TEME
TIME_SYSTEM    = UTC
MEAN_ELEMENT_THEORY = SGP/SGP4

EPOCH          = 2026-02-08T20:18:33.329376
MEAN_MOTION    = 14.86634128
ECCENTRICITY   = .00213077
INCLINATION    = 82.5704
RA_OF_ASC_NODE = 168.3691
ARG_OF_PERICENTER = 40.3601
MEAN_ANOMALY   = 74.7907

EPHEMERIS_TYPE = 0
CLASSIFICATION_TYPE = U
NORAD_CAT_ID   = 13553
ELEMENT_SET_NO = 999
REV_AT_EPOCH   = 32464
BSTAR          = .74908768E-4
MEAN_MOTION_DOT = .692E-5
MEAN_MOTION_DDOT = 0

CCSDS_OMM_VERS = 2.0
CREATION_DATE  = 
ORIGINATOR     = 

OBJECT_NAME    = SL-3 R/B
OBJECT_ID      = 1983-010B
CENTER_NAME    = EARTH
REF_FRAME      = TEME
TIME_SYSTEM    = UTC
MEAN_ELEMENT_THEORY = SGP/SGP4

EPOCH          = 2026-02-08T22:55:41.324160
MEAN_MOTION    = 15.45331102
ECCENTRICITY   = .00179655
INCLINATION    = 81.1025
RA_OF_ASC_NODE = 37.4489
ARG_OF_PERICENTER = 142.2573
MEAN_ANOMALY   = 217.9936

EPHEMERIS_TYPE = 0
CLASSIFICATION_TYPE = U
NORAD_CAT_ID   = 13819
ELEMENT_SET_NO = 999
REV_AT_EPOCH   = 35350
BSTAR          = .30167796E-3
MEAN_MOTION_DOT = .14508E-3
MEAN_MOTION_DDOT = 0

CCSDS_OMM_VERS = 2.0
CREATION_DATE  = 
ORIGINATOR     = 

OBJECT_NAME    = SL-3 R/B
OBJECT_ID      = 1983-075B
CENTER_NAME    = EARTH
REF_FRAME      = TEME
TIME_SYSTEM    = UTC
MEAN_ELEMENT_THEORY = SGP/SGP4

EPOCH          = 2026-02-08T22:19:58.740672
MEAN_MOTION    = 15.37673498
ECCENTRICITY   = .00210438
INCLINATION    = 97.6136
RA_OF_ASC_NODE = 43.4404
ARG_OF_PERICENTER = 338.0233
MEAN_ANOMALY   = 22.0107

EPHEMERIS_TYPE = 0
CLASSIFICATION_TYPE = U
NORAD_CAT_ID   = 14208
ELEMENT_SET_NO = 999
REV_AT_EPOCH   = 32573
BSTAR          = .32860822E-3
MEAN_MOTION_DOT = .12162E-3
MEAN_MOTION_DDOT = 0

CCSDS_OMM_VERS = 2.0
CREATION_DATE  = 
ORIGINATOR     = 

OBJECT_NAME    = COSMOS 1536
OBJECT_ID      = 1984-013A
CENTER_NAME    = EARTH
REF_FRAME      = TEME
TIME_SYSTEM    = UTC
MEAN_ELEMENT_THEORY = SGP/SGP4

EPOCH          = 2026-02-08T18:10:22.169856
MEAN_MOTION    = 15.23437677
ECCENTRICITY   = .00149126
INCLINATION    = 82.5467
RA_OF_ASC_NODE = 136.5955
ARG_OF_PERICENTER = 29.7834
MEAN_ANOMALY   = 330.4248

EPHEMERIS_TYPE = 0
CLASSIFICATION_TYPE = U
NORAD_CAT_ID   = 14699
ELEMENT_SET_NO = 999
REV_AT_EPOCH   = 26821
BSTAR          = .26020706E-3
MEAN_MOTION_DOT = .6247E-4
MEAN_MOTION_DDOT = 0

CCSDS_OMM_VERS = 2.0
CREATION_DATE  = 
ORIGINATOR     = 

OBJECT_NAME    = SL-14 R/B
OBJECT_ID      = 1984-027B
CENTER_NAME    = EARTH
REF_FRAME      = TEME
TIME_SYSTEM    = UTC
MEAN_ELEMENT_THEORY = SGP/SGP4

EPOCH          = 2026-02-08T17:42:23.298624
MEAN_MOTION    = 14.85947871
ECCENTRICITY   = .00194538
INCLINATION    = 82.5398
RA_OF_ASC_NODE = 272.1722
ARG_OF_PERICENTER = 70.9091
MEAN_ANOMALY   = 289.4229

EPHEMERIS_TYPE = 0
CLASSIFICATION_TYPE = U
NORAD_CAT_ID   = 14820
ELEMENT_SET_NO = 999
REV_AT_EPOCH   = 24333
BSTAR          = .52475889E-4
MEAN_MOTION_DOT = .484E-5
MEAN_MOTION_DDOT = 0

CCSDS_OMM_VERS = 2.0
CREATION_DATE  = 
ORIGINATOR     = 

OBJECT_NAME    = SL-8 R/B
OBJECT_ID      = 1985-006B
CENTER_NAME    = EARTH
REF_FRAME      = TEME
TIME_SYSTEM    = UTC
MEAN_ELEMENT_THEORY = SGP/SGP4

EPOCH          = 2026-02-08T22:10:14.102112
MEAN_MOTION    = 14.37768811
ECCENTRICITY   = .0019507
INCLINATION    = 74.0471
RA_OF_ASC_NODE = 314.0799
ARG_OF_PERICENTER = 237.4747
MEAN_ANOMALY   = 195.6726

EPHEMERIS_TYPE = 0
CLASSIFICATION_TYPE = U
NORAD_CAT_ID   = 15483
ELEMENT_SET_NO = 999
REV_AT_EPOCH   = 14989
BSTAR          = .93507974E-4
MEAN_MOTION_DOT = .256E-5
MEAN_MOTION_DDOT = 0

CCSDS_OMM_VERS = 2.0
CREATION_DATE  = 
ORIGINATOR     = 

OBJECT_NAME    = SL-12 R/B(2)
OBJECT_ID      = 1985-042D
CENTER_NAME    = EARTH
REF_FRAME      = TEME
TIME_SYSTEM    = UTC
MEAN_ELEMENT_THEORY = SGP/SGP4

EPOCH          = 2026-02-08T17:17:35.264256
MEAN_MOTION    = 14.21974094
ECCENTRICITY   = .00349227
INCLINATION    = 71.1087
RA_OF_ASC_NODE = 148.9314
ARG_OF_PERICENTER = 174.5516
MEAN_ANOMALY   = 292.1157

EPHEMERIS_TYPE = 0
CLASSIFICATION_TYPE = U
NORAD_CAT_ID   = 15772
ELEMENT_SET_NO = 999
REV_AT_EPOCH   = 11027
BSTAR          = .10508712E-3
MEAN_MOTION_DOT = .186E-5
MEAN_MOTION_DDOT = 0

CCSDS_OMM_VERS = 2.0
CREATION_DATE  = 
ORIGINATOR     = 

OBJECT_NAME    = SL-14 R/B
OBJECT_ID      = 1985-069B
CENTER_NAME    = EARTH
REF_FRAME      = TEME
TIME_SYSTEM    = UTC
MEAN_ELEMENT_THEORY = SGP/SGP4

EPOCH          = 2026-02-08T22:23:54.208320
MEAN_MOTION    = 14.86398786
ECCENTRICITY   = .00172697
INCLINATION    = 82.5241
RA_OF_ASC_NODE = 51.9792
ARG_OF_PERICENTER = 289.4665
MEAN_ANOMALY   = 70.4685

EPHEMERIS_TYPE = 0
CLASSIFICATION_TYPE = U
NORAD_CAT_ID   = 15945
ELEMENT_SET_NO = 999
REV_AT_EPOCH   = 16856
BSTAR          = .61167823E-4
MEAN_MOTION_DOT = .565E-5
MEAN_MOTION_DDOT = 0

CCSDS_OMM_VERS = 2.0
CREATION_DATE  = 
ORIGINATOR     = 

OBJECT_NAME    = SL-16 R/B
OBJECT_ID      = 1985-097B
CENTER_NAME    = EARTH
REF_FRAME      = TEME
TIME_SYSTEM    = UTC
MEAN_ELEMENT_THEORY = SGP/SGP4

EPOCH          = 2026-02-08T21:42:27.234432
MEAN_MOTION    = 14.16596310
ECCENTRICITY   = .00096241
INCLINATION    = 71.0017
RA_OF_ASC_NODE = 201.1505
ARG_OF_PERICENTER = 293.2709
MEAN_ANOMALY   = 180.6340

EPHEMERIS_TYPE = 0
CLASSIFICATION_TYPE = U
NORAD_CAT_ID   = 16182
ELEMENT_SET_NO = 999
REV_AT_EPOCH   = 8315
BSTAR          = -.26825316E-4
MEAN_MOTION_DOT = -.101E-5
MEAN_MOTION_DDOT = 0

CCSDS_OMM_VERS = 2.0
CREATION_DATE  = 
ORIGINATOR     = 

OBJECT_NAME    = SL-14 R/B
OBJECT_ID      = 1986-006B
CENTER_NAME    = EARTH
REF_FRAME      = TEME
TIME_SYSTEM    = UTC
MEAN_ELEMENT_THEORY = SGP/SGP4

EPOCH          = 2026-02-08T17:11:00.910464
MEAN_MOTION    = 14.86775412
ECCENTRICITY   = .00769215
INCLINATION    = 82.5267
RA_OF_ASC_NODE = 287.0086
ARG_OF_PERICENTER = 9.9250
MEAN_ANOMALY   = 350.3463

EPHEMERIS_TYPE = 0
CLASSIFICATION_TYPE = U
NORAD_CAT_ID   = 16496
ELEMENT_SET_NO = 999
REV_AT_EPOCH   = 14490
BSTAR          = .84730257E-4
MEAN_MOTION_DOT = .823E-5
MEAN_MOTION_DDOT = 0

CCSDS_OMM_VERS = 2.0
CREATION_DATE  = 
ORIGINATOR     = 

OBJECT_NAME    = COSMOS 1743
OBJECT_ID      = 1986-034A
CENTER_NAME    = EARTH
REF_FRAME      = TEME
TIME_SYSTEM    = UTC
MEAN_ELEMENT_THEORY = SGP/SGP4

EPOCH          = 2026-02-08T15:58:11.583840
MEAN_MOTION    = 15.56446054
ECCENTRICITY   = .00050527
INCLINATION    = 82.5329
RA_OF_ASC_NODE = 104.2405
ARG_OF_PERICENTER = 52.0330
MEAN_ANOMALY   = 308.1381

EPHEMERIS_TYPE = 0
CLASSIFICATION_TYPE = U
NORAD_CAT_ID   = 16719
ELEMENT_SET_NO = 999
REV_AT_EPOCH   = 17573
BSTAR          = .42305459E-3
MEAN_MOTION_DOT = .30015E-3
MEAN_MOTION_DDOT = 0

